CCSDS_OMM_VERS = 2.0
CREATION_DATE  = 
ORIGINATOR     = 

OBJECT_NAME    = STARLINK-36080
OBJECT_ID      = 2025-278L
CENTER_NAME    = EARTH
REF_FRAME      = TEME
TIME_SYSTEM    = UTC
MEAN_ELEMENT_THEORY = SGP/SGP4

EPOCH          = 2025-12-13T04:04:48.475200
MEAN_MOTION    = 15.86249052
ECCENTRICITY   = .00021649
INCLINATION    = 42.9972
RA_OF_ASC_NODE = 249.3919
ARG_OF_PERICENTER = 305.2920
MEAN_ANOMALY   = 54.7750

EPHEMERIS_TYPE = 0
CLASSIFICATION_TYPE = U
NORAD_CAT_ID   = 66801
ELEMENT_SET_NO = 999
REV_AT_EPOCH   = 190
BSTAR          = -.19026268E-2
MEAN_MOTION_DOT = -.466175E-2
MEAN_MOTION_DDOT = 0

CCSDS_OMM_VERS = 2.0
CREATION_DATE  = 
ORIGINATOR     = 

OBJECT_NAME    = STARLINK-35604
OBJECT_ID      = 2025-278M
CENTER_NAME    = EARTH
REF_FRAME      = TEME
TIME_SYSTEM    = UTC
MEAN_ELEMENT_THEORY = SGP/SGP4

EPOCH          = 2025-12-12T19:03:50.216544
MEAN_MOTION    = 15.88185477
ECCENTRICITY   = .00024924
INCLINATION    = 42.9971
RA_OF_ASC_NODE = 251.7403
ARG_OF_PERICENTER = 313.5703
MEAN_ANOMALY   = 46.4964

EPHEMERIS_TYPE = 0
CLASSIFICATION_TYPE = U
NORAD_CAT_ID   = 66802
ELEMENT_SET_NO = 999
REV_AT_EPOCH   = 184
BSTAR          = -.82672322E-2
MEAN_MOTION_DOT = -.20362E-1
MEAN_MOTION_DDOT = 0

CCSDS_OMM_VERS = 2.0
CREATION_DATE  = 
ORIGINATOR     = 

OBJECT_NAME    = STARLINK-35565
OBJECT_ID      = 2025-278N
CENTER_NAME    = EARTH
REF_FRAME      = TEME
TIME_SYSTEM    = UTC
MEAN_ELEMENT_THEORY = SGP/SGP4

EPOCH          = 2025-12-12T19:02:38.302368
MEAN_MOTION    = 15.88166969
ECCENTRICITY   = .00047766
INCLINATION    = 42.9974
RA_OF_ASC_NODE = 251.7329
ARG_OF_PERICENTER = 311.8639
MEAN_ANOMALY   = 48.1827

EPHEMERIS_TYPE = 0
CLASSIFICATION_TYPE = U
NORAD_CAT_ID   = 66803
ELEMENT_SET_NO = 999
REV_AT_EPOCH   = 184
BSTAR          = -.87251966E-2
MEAN_MOTION_DOT = -.2134789E-1
MEAN_MOTION_DDOT = 0

CCSDS_OMM_VERS = 2.0
CREATION_DATE  = 
ORIGINATOR     = 

OBJECT_NAME    = STARLINK-36038
OBJECT_ID      = 2025-278P
CENTER_NAME    = EARTH
REF_FRAME      = TEME
TIME_SYSTEM    = UTC
MEAN_ELEMENT_THEORY = SGP/SGP4

EPOCH          = 2025-12-13T02:35:39.395904
MEAN_MOTION    = 15.87407375
ECCENTRICITY   = .00024163
INCLINATION    = 42.9972
RA_OF_ASC_NODE = 249.7898
ARG_OF_PERICENTER = 257.1775
MEAN_ANOMALY   = 102.8828

EPHEMERIS_TYPE = 0
CLASSIFICATION_TYPE = U
NORAD_CAT_ID   = 66804
ELEMENT_SET_NO = 999
REV_AT_EPOCH   = 189
BSTAR          = .235919E-2
MEAN_MOTION_DOT = .696674E-2
MEAN_MOTION_DDOT = 0

CCSDS_OMM_VERS = 2.0
CREATION_DATE  = 
ORIGINATOR     = 

OBJECT_NAME    = STARLINK-36049
OBJECT_ID      = 2025-278Q
CENTER_NAME    = EARTH
REF_FRAME      = TEME
TIME_SYSTEM    = UTC
MEAN_ELEMENT_THEORY = SGP/SGP4

EPOCH          = 2025-12-13T02:34:04.423296
MEAN_MOTION    = 15.86735504
ECCENTRICITY   = .00054756
INCLINATION    = 42.9968
RA_OF_ASC_NODE = 249.7806
ARG_OF_PERICENTER = 256.6916
MEAN_ANOMALY   = 103.3347

EPHEMERIS_TYPE = 0
CLASSIFICATION_TYPE = U
NORAD_CAT_ID   = 66805
ELEMENT_SET_NO = 999
REV_AT_EPOCH   = 189
BSTAR          = -.37719056E-2
MEAN_MOTION_DOT = -.902717E-2
MEAN_MOTION_DDOT = 0

CCSDS_OMM_VERS = 2.0
CREATION_DATE  = 
ORIGINATOR     = 

OBJECT_NAME    = STARLINK-36069
OBJECT_ID      = 2025-278R
CENTER_NAME    = EARTH
REF_FRAME      = TEME
TIME_SYSTEM    = UTC
MEAN_ELEMENT_THEORY = SGP/SGP4

EPOCH          = 2025-12-12T23:33:28.013472
MEAN_MOTION    = 15.89964578
ECCENTRICITY   = .00095169
INCLINATION    = 42.9955
RA_OF_ASC_NODE = 250.5622
ARG_OF_PERICENTER = 265.6965
MEAN_ANOMALY   = 94.2822

EPHEMERIS_TYPE = 0
CLASSIFICATION_TYPE = U
NORAD_CAT_ID   = 66806
ELEMENT_SET_NO = 999
REV_AT_EPOCH   = 187
BSTAR          = .12088276E-1
MEAN_MOTION_DOT = .3313883E-1
MEAN_MOTION_DDOT = .10113462E-1

CCSDS_OMM_VERS = 2.0
CREATION_DATE  = 
ORIGINATOR     = 

OBJECT_NAME    = STARLINK-36000
OBJECT_ID      = 2025-278S
CENTER_NAME    = EARTH
REF_FRAME      = TEME
TIME_SYSTEM    = UTC
MEAN_ELEMENT_THEORY = SGP/SGP4

EPOCH          = 2025-12-12T18:59:45.730464
MEAN_MOTION    = 15.88144314
ECCENTRICITY   = .00044665
INCLINATION    = 42.9973
RA_OF_ASC_NODE = 251.7173
ARG_OF_PERICENTER = 311.7795
MEAN_ANOMALY   = 48.2697

EPHEMERIS_TYPE = 0
CLASSIFICATION_TYPE = U
NORAD_CAT_ID   = 66807
ELEMENT_SET_NO = 999
REV_AT_EPOCH   = 184
BSTAR          = -.75543401E-2
MEAN_MOTION_DOT = -.1841027E-1
MEAN_MOTION_DDOT = 0

CCSDS_OMM_VERS = 2.0
CREATION_DATE  = 
ORIGINATOR     = 

OBJECT_NAME    = STARLINK-36071
OBJECT_ID      = 2025-278T
CENTER_NAME    = EARTH
REF_FRAME      = TEME
TIME_SYSTEM    = UTC
MEAN_ELEMENT_THEORY = SGP/SGP4

EPOCH          = 2025-12-13T02:32:58.166592
MEAN_MOTION    = 15.86679573
ECCENTRICITY   = .00039268
INCLINATION    = 42.9971
RA_OF_ASC_NODE = 249.7744
ARG_OF_PERICENTER = 291.8108
MEAN_ANOMALY   = 68.2347

EPHEMERIS_TYPE = 0
CLASSIFICATION_TYPE = U
NORAD_CAT_ID   = 66808
ELEMENT_SET_NO = 999
REV_AT_EPOCH   = 189
BSTAR          = .25751023E-3
MEAN_MOTION_DOT = .67784E-3
MEAN_MOTION_DDOT = 0

CCSDS_OMM_VERS = 2.0
CREATION_DATE  = 
ORIGINATOR     = 

OBJECT_NAME    = STARLINK-35979
OBJECT_ID      = 2025-278U
CENTER_NAME    = EARTH
REF_FRAME      = TEME
TIME_SYSTEM    = UTC
MEAN_ELEMENT_THEORY = SGP/SGP4

EPOCH          = 2025-12-13T02:30:27.588672
MEAN_MOTION    = 15.86787624
ECCENTRICITY   = .00012538
INCLINATION    = 42.9970
RA_OF_ASC_NODE = 249.7587
ARG_OF_PERICENTER = 232.3097
MEAN_ANOMALY   = 127.7663

EPHEMERIS_TYPE = 0
CLASSIFICATION_TYPE = U
NORAD_CAT_ID   = 66809
ELEMENT_SET_NO = 999
REV_AT_EPOCH   = 189
BSTAR          = -.75235517E-3
MEAN_MOTION_DOT = -.1954E-2
MEAN_MOTION_DDOT = 0

CCSDS_OMM_VERS = 2.0
CREATION_DATE  = 
ORIGINATOR     = 

OBJECT_NAME    = STARLINK-36046
OBJECT_ID      = 2025-278V
CENTER_NAME    = EARTH
REF_FRAME      = TEME
TIME_SYSTEM    = UTC
MEAN_ELEMENT_THEORY = SGP/SGP4

EPOCH          = 2025-12-13T01:00:19.749600
MEAN_MOTION    = 15.89788073
ECCENTRICITY   = .00029914
INCLINATION    = 42.9974
RA_OF_ASC_NODE = 250.1521
ARG_OF_PERICENTER = 285.6834
MEAN_ANOMALY   = 74.3710

EPHEMERIS_TYPE = 0
CLASSIFICATION_TYPE = U
NORAD_CAT_ID   = 66810
ELEMENT_SET_NO = 999
REV_AT_EPOCH   = 188
BSTAR          = .22644771E-2
MEAN_MOTION_DOT = .758232E-2
MEAN_MOTION_DDOT = 0

CCSDS_OMM_VERS = 2.0
CREATION_DATE  = 
ORIGINATOR     = 

OBJECT_NAME    = STARLINK-36045
OBJECT_ID      = 2025-278W
CENTER_NAME    = EARTH
REF_FRAME      = TEME
TIME_SYSTEM    = UTC
MEAN_ELEMENT_THEORY = SGP/SGP4

EPOCH          = 2025-12-13T01:00:27.694944
MEAN_MOTION    = 15.89484454
ECCENTRICITY   = .00029504
INCLINATION    = 42.9970
RA_OF_ASC_NODE = 250.1519
ARG_OF_PERICENTER = 282.9701
MEAN_ANOMALY   = 77.0844

EPHEMERIS_TYPE = 0
CLASSIFICATION_TYPE = U
NORAD_CAT_ID   = 66811
ELEMENT_SET_NO = 999
REV_AT_EPOCH   = 188
BSTAR          = .92253817E-2
MEAN_MOTION_DOT = .3295879E-1
MEAN_MOTION_DDOT = 0

CCSDS_OMM_VERS = 2.0
CREATION_DATE  = 
ORIGINATOR     = 

OBJECT_NAME    = STARLINK-36054
OBJECT_ID      = 2025-278X
CENTER_NAME    = EARTH
REF_FRAME      = TEME
TIME_SYSTEM    = UTC
MEAN_ELEMENT_THEORY = SGP/SGP4

EPOCH          = 2025-12-13T00:59:17.520000
MEAN_MOTION    = 15.86937598
ECCENTRICITY   = .00028433
INCLINATION    = 42.9974
RA_OF_ASC_NODE = 250.1444
ARG_OF_PERICENTER = 236.1204
MEAN_ANOMALY   = 123.9400

EPHEMERIS_TYPE = 0
CLASSIFICATION_TYPE = U
NORAD_CAT_ID   = 66812
ELEMENT_SET_NO = 999
REV_AT_EPOCH   = 188
BSTAR          = -.23443986E-2
MEAN_MOTION_DOT = -.586394E-2
MEAN_MOTION_DDOT = 0

