STARLINK-36080          
1 66801U 25278L   25347.17000550 -.00466175  00000+0 -19026-2 0  9994
2 66801  42.9972 249.3919 0002164 305.2920  54.7750 15.86249052  1907
STARLINK-35604          
1 66802U 25278M   25346.79433121 -.02036200  00000+0 -82672-2 0  9997
2 66802  42.9971 251.7403 0002492 313.5703  46.4964 15.88185477  1847
STARLINK-35565          
1 66803U 25278N   25346.79349887 -.02134789  00000+0 -87252-2 0  9993
2 66803  42.9974 251.7329 0004776 311.8639  48.1827 15.88166969  1846
STARLINK-36038          
1 66804U 25278P   25347.10809486  .00696674  00000+0  23592-2 0  9995
2 66804  42.9972 249.7898 0002416 257.1775 102.8828 15.87407375  1897
STARLINK-36049          
1 66805U 25278Q   25347.10699564 -.00902717  00000+0 -37719-2 0  9996
2 66805  42.9968 249.7806 0005475 256.6916 103.3347 15.86735504  1890
STARLINK-36069          
1 66806U 25278R   25346.98157423  .03313883  10113-1  12088-1 0  9995
2 66806  42.9955 250.5622 0009516 265.6965  94.2822 15.89964578  1879
STARLINK-36000          
1 66807U 25278S   25346.79150151 -.01841027  00000+0 -75543-2 0  9990
2 66807  42.9973 251.7173 0004466 311.7795  48.2697 15.88144314  1840
STARLINK-36071          
1 66808U 25278T   25347.10622878  .00067784  00000+0  25751-3 0  9991
2 66808  42.9971 249.7744 0003926 291.8108  68.2347 15.86679573  1893
STARLINK-35979          
1 66809U 25278U   25347.10448598 -.00195400  00000+0 -75236-3 0  9999
2 66809  42.9970 249.7587 0001253 232.3097 127.7663 15.86787624  1895
STARLINK-36046          
1 66810U 25278V   25347.04189525  .00758232  00000+0  22645-2 0  9997
2 66810  42.9974 250.1521 0002991 285.6834  74.3710 15.89788073  1886
STARLINK-36045          
1 66811U 25278W   25347.04198721  .03295879  00000+0  92254-2 0  9995
2 66811  42.9970 250.1519 0002950 282.9701  77.0844 15.89484454  1882
STARLINK-36054          
1 66812U 25278X   25347.04117500 -.00586394  00000+0 -23444-2 0  9991
2 66812  42.9974 250.1444 0002843 236.1204 123.9400 15.86937598  1882
